NORAD_CAT_ID,OBJECT_NAME,OBJECT_TYPE,EPOCH,MEAN_MOTION,ECCENTRICITY,INCLINATION,RA_OF_ASC_NODE,ARG_OF_PERICENTER,MEAN_ANOMALY,BSTAR,MEAN_MOTION_DOT,MEAN_MOTION_DDOT,TLE_LINE0,TLE_LINE1,TLE_LINE2,SEMIMAJOR_AXIS,PERIOD,APOGEE,PERIGEE,DECAYED
53409.0,STARLINK-4490,PAYLOAD,2022-11-25 22:00:00,15.08855331,0.0001248,53.2167,90.2996,78.7196,9.5618,-0.00095847,-0.00015516,0.0,0 STARLINK-4490,1 53409U 22097X   22329.91667824 -.00015516  00000-0 -95847-3 0  9998,2 53409  53.2167  90.2996 0001248  78.7196   9.5618 15.08855331 17179,6917.834,95.437,540.562,538.835,0.0
53409.0,STARLINK-4490,PAYLOAD,2022-11-26 00:00:00,15.08856149,0.0001240999999999,53.2169,89.925,82.9434,98.2401,-0.0013309,-0.00021416,0.0,0 STARLINK-4490,1 53409U 22097X   22330.00001157 -.00021416  00000-0 -13309-2 0  9999,2 53409  53.2169  89.9250 0001241  82.9434  98.2401 15.08856149  1305,6917.831,95.437,540.555,538.8380000000002,0.0
53409.0,STARLINK-4490,PAYLOAD,2022-11-26 14:00:01,15.08861548,0.0001214,53.2169,87.3073,82.5634,28.9296,-0.0031529,-0.00050146,0.0,0 STARLINK-4490,1 53409U 22097X   22330.58334491 -.00050146  00000-0 -31529-2 0  9998,2 53409  53.2169  87.3073 0001214  82.5634  28.9296 15.08861548  1309,6917.815,95.436,540.519,538.84,0.0
53409.0,STARLINK-4490,PAYLOAD,2022-11-26 22:00:00,15.08859539,0.0001183,53.2166,85.8108,78.7843,44.3039,-0.0034399,-0.00054647,0.0,0 STARLINK-4490,1 53409U 22097X   22330.91667824 -.00054647  00000-0 -34399-2 0  9992,2 53409  53.2166  85.8108 0001183  78.7843  44.3039 15.08859539 17325,6917.821,95.436,540.504,538.867,0.0
53409.0,STARLINK-4490,PAYLOAD,2022-11-27 14:00:01,15.08831954,0.0001264,53.2165,82.8186,81.9355,64.3219,-0.0004737,-7.817e-05,0.0,0 STARLINK-4490,1 53409U 22097X   22331.58334491 -.00007817  00000-0 -47370-3 0  9998,2 53409  53.2165  82.8186 0001264  81.9355  64.3219 15.08831954  1305,6917.905,95.438,540.644,538.896,0.0
53409.0,STARLINK-4490,PAYLOAD,2022-11-28 00:00:00,15.08860486,0.0001246,53.2163,80.9473,83.5433,167.1908,-0.004246,-0.00067269,0.0,0 STARLINK-4490,1 53409U 22097X   22332.00001157 -.00067269  00000-0 -42460-2 0  9997,2 53409  53.2163  80.9473 0001246  83.5433 167.1908 15.08860486  1305,6917.818,95.436,540.545,538.821,0.0
53409.0,STARLINK-4490,PAYLOAD,2022-11-28 16:00:00,15.08817883,0.000139,53.2162,77.9559,77.9953,195.9149,0.0022531,0.0003573,0.0,0 STARLINK-4490,1 53409U 22097X   22332.66667824  .00035730  00000-0  22531-2 0  9991,2 53409  53.2162  77.9559 0001390  77.9953 195.9149 15.08817883 17585,6917.948,95.439,540.775,538.851,0.0
53409.0,STARLINK-4490,PAYLOAD,2022-11-28 22:00:01,15.08853777,0.0001319,53.2158,76.8327,79.2777,113.3752,-0.0011896,-0.00019177,0.0,0 STARLINK-4490,1 53409U 22097X   22332.91668981 -.00019177  00000-0 -11896-2 0  9995,2 53409  53.2158  76.8327 0001319  79.2777 113.3752 15.08853777  1300,6917.8380000000025,95.437,540.616,538.7909999999998,0.0
53409.0,STARLINK-4490,PAYLOAD,2022-11-29 14:00:01,15.08836613,0.0001467,53.2158,73.8403,77.8162,138.0502,-0.00073497,-0.00011965,0.0,0 STARLINK-4490,1 53409U 22097X   22333.58335648 -.00011965  00000-0 -73497-3 0  9993,2 53409  53.2158  73.8403 0001467  77.8162 138.0502 15.08836613 17728,6917.891,95.438,540.771,538.741,0.0
53409.0,STARLINK-4490,PAYLOAD,2022-11-29 22:00:00,15.08841481,0.0001337,53.2158,72.3432,76.3062,151.0832,-0.0023609,-0.00037667,0.0,0 STARLINK-4490,1 53409U 22097X   22333.91667824 -.00037667  00000-0 -23609-2 0  9990,2 53409  53.2158  72.3432 0001337  76.3062 151.0832 15.08841481  1300,6917.876,95.437,540.6659999999998,538.816,0.0
53409.0,STARLINK-4490,PAYLOAD,2022-11-30 14:00:01,15.08834844,0.0001425,53.2162,69.3511,72.8979,177.7219,0.00069835,0.00010842,0.0,0 STARLINK-4490,1 53409U 22097X   22334.58335648  .00010842  00000-0  69835-3 0  9996,2 53409  53.2162  69.3511 0001425  72.8979 177.7219 15.08834844 17873,6917.896,95.438,540.747,538.775,0.0
53409.0,STARLINK-4490,PAYLOAD,2022-11-30 22:00:00,15.08884739,0.0001375999999999,53.2165,67.8535,72.7088,189.4353,-0.0079691,-0.00125074,0.0,0 STARLINK-4490,1 53409U 22097X   22334.91667824 -.00125074  00000-0 -79691-2 0  9993,2 53409  53.2165  67.8535 0001376  72.7088 189.4353 15.08884739  1308,6917.744000000002,95.435,540.561,538.6569999999998,0.0
53409.0,STARLINK-4490,PAYLOAD,2022-12-01 08:00:01,15.08840087,0.0001252,53.2167,65.9821,79.0058,287.6695,-0.00010426,-1.947e-05,0.0,0 STARLINK-4490,1 53409U 22097X   22335.33335648 -.00001947  00000-0 -10426-3 0  9990,2 53409  53.2167  65.9821 0001252  79.0058 287.6695 15.08840087 17997,6917.88,95.438,540.611,538.879,0.0
53409.0,STARLINK-4490,PAYLOAD,2022-12-01 14:00:01,15.08837879,0.0001363,53.2167,64.8616,68.1747,217.1533,0.0013874,0.0002186,0.0,0 STARLINK-4490,1 53409U 22097X   22335.58334491  .00021860  00000-0  13874-2 0  9995,2 53409  53.2167  64.8616 0001363  68.1747 217.1533 15.08837879  1306,6917.887,95.438,540.695,538.809,0.0
53409.0,STARLINK-4490,PAYLOAD,2022-12-01 22:00:00,15.08885214,0.0001314,53.2169,63.3643,69.9262,227.0002,-0.0044684,-0.00070791,0.0,0 STARLINK-4490,1 53409U 22097X   22335.91667824 -.00070791  00000-0 -44684-2 0  9993,2 53409  53.2169  63.3643 0001314  69.9262 227.0002 15.08885214 18089,6917.7419999999975,95.435,540.516,538.698,0.0
53409.0,STARLINK-4490,PAYLOAD,2022-12-02 00:00:00,15.08857849,0.0001322,53.217,62.9897,73.7381,316.1024,-0.0016832,-0.00026989,0.0,0 STARLINK-4490,1 53409U 22097X   22336.00001157 -.00026989  00000-0 -16832-2 0  9999,2 53409  53.2170  62.9897 0001322  73.7381 316.1024 15.08857849  1305,6917.826,95.436,540.605,538.776,0.0
53409.0,STARLINK-4490,PAYLOAD,2022-12-02 14:00:01,15.08819453,0.0001557,53.2173,60.3724,69.7412,250.4009,0.0013659,0.00021505,0.0,0 STARLINK-4490,1 53409U 22097X   22336.58334491  .00021505  00000-0  13659-2 0  9993,2 53409  53.2173  60.3724 0001557  69.7412 250.4009 15.08819453  1301,6917.943,95.439,540.885,538.731,0.0
53409.0,STARLINK-4490,PAYLOAD,2022-12-02 16:00:00,15.08812799,0.0001516,53.2173,59.9985,68.1176,344.9217,0.0025911,0.0004116,0.0,0 STARLINK-4490,1 53409U 22097X   22336.66667824  .00041160  00000-0  25911-2 0  9994,2 53409  53.2173  59.9985 0001516  68.1176 344.9217 15.08812799 18190,6917.964,95.439,540.877,538.78,0.0
53409.0,STARLINK-4490,PAYLOAD,2022-12-02 22:00:00,15.08856065,0.0001395,53.2173,58.875,71.0757,260.6441,-0.0040137,-0.00063629,0.0,0 STARLINK-4490,1 53409U 22097X   22336.91667824 -.00063629  00000-0 -40137-2 0  9995,2 53409  53.2173  58.8750 0001395  71.0757 260.6441 15.08856065  1303,6917.831,95.437,540.661,538.731,0.0
53409.0,STARLINK-4490,PAYLOAD,2022-12-03 08:00:01,15.08841156,0.0001354,53.2177,57.0045,75.2971,0.8965,-0.00074734,-0.00012162,0.0,0 STARLINK-4490,1 53409U 22097X   22337.33334491 -.00012162  00000-0 -74734-3 0  9990,2 53409  53.2177  57.0045 0001354  75.2971   0.8965 15.08841156 18290,6917.877,95.437,540.679,538.805,0.0
53409.0,STARLINK-4490,PAYLOAD,2022-12-03 14:00:01,15.08822617,0.0001445,53.2177,55.8835,67.736,287.1546,0.0016844999999999,0.0002661,0.0,0 STARLINK-4490,1 53409U 22097X   22337.58334491  .00026610  00000-0  16845-2 0  9996,2 53409  53.2177  55.8835 0001445  67.7360 287.1546 15.08822617  1302,6917.934,95.439,540.798,538.799,0.0
53409.0,STARLINK-4490,PAYLOAD,2022-12-03 22:00:00,15.0886155,0.0001391,53.2175,54.386,71.4086,295.0665,-0.0038316,-0.00060789,0.0,0 STARLINK-4490,1 53409U 22097X   22337.91667824 -.00060789  00000-0 -38316-2 0  9996,2 53409  53.2175  54.3860 0001391  71.4086 295.0665 15.08861550  1308,6917.815,95.436,540.6419999999998,538.717,0.0
53409.0,STARLINK-4490,PAYLOAD,2022-12-04 14:00:01,15.0884869,0.0001515,53.2177,51.3949,68.4228,321.2343,-9.4839e-05,-1.797e-05,0.0,0 STARLINK-4490,1 53409U 22097X   22338.58334491 -.00001797  00000-0 -94839-4 0  9999,2 53409  53.2177  51.3949 0001515  68.4228 321.2343 15.08848690  1302,6917.854,95.437,540.7669999999998,538.6709999999998,0.0
53409.0,STARLINK-4490,PAYLOAD,2022-12-04 22:00:00,15.08842693,0.0001363,53.2174,49.8972,72.4824,328.786,-0.00098601,-0.00015947,0.0,0 STARLINK-4490,1 53409U 22097X   22338.91667824 -.00015947  00000-0 -98601-3 0  9997,2 53409  53.2174  49.8972 0001363  72.4824 328.7860 15.08842693  1308,6917.871999999999,95.437,540.68,538.794,0.0
53409.0,STARLINK-4490,PAYLOAD,2022-12-05 14:00:01,15.088283,0.0001351,53.2174,46.9061,65.9227,358.6192,0.0013678,0.00021541,0.0,0 STARLINK-4490,1 53409U 22097X   22339.58335648  .00021541  00000-0  13678-2 0  9992,2 53409  53.2174  46.9061 0001351  65.9227 358.6192 15.08828300  1305,6917.916,95.438,540.716,538.847,0.0
53409.0,STARLINK-4490,PAYLOAD,2022-12-05 16:00:00,15.08815318,0.0001326,53.2171,46.532,63.0055,94.3756,0.0034216,0.00054551,0.0,0 STARLINK-4490,1 53409U 22097X   22339.66667824  .00054551  00000-0  34216-2 0  9993,2 53409  53.2171  46.5320 0001326  63.0055  94.3756 15.08815318 18646,6917.956,95.439,540.738,538.904,0.0
53409.0,STARLINK-4490,PAYLOAD,2022-12-06 05:36:48,15.08848247,0.0001444,53.2195,43.9843,74.8219,285.2933,0.00011562,1.553e-05,0.0,0 STARLINK-4490,1 53409U 22097X   22340.23389701  .00001553  00000-0  11562-3 0  9997,2 53409  53.2195  43.9843 0001444  74.8219 285.2933 15.08848247 18731,6917.855,95.437,540.719,538.721,0.0
53409.0,STARLINK-4490,PAYLOAD,2022-12-06 13:33:45,15.08831451,0.0001315999999999,53.2208,42.4997,80.1849,279.9291,9.8286e-05,1.276e-05,0.0,0 STARLINK-4490,1 53409U 22097X   22340.56510723  .00001276  00000-0  98286-4 0  9994,2 53409  53.2208  42.4997 0001316  80.1849 279.9291 15.08831451 18788,6917.906999999997,95.438,540.682,538.861,0.0
53409.0,STARLINK-4490,PAYLOAD,2022-12-07 11:49:09,15.08832344,0.0001364,53.2192,38.3349,67.7836,292.3301,-8.549799999999999e-05,-1.648e-05,0.0,0 STARLINK-4490,1 53409U 22097X   22341.49247631 -.00001648  00000-0 -85498-4 0  9998,2 53409  53.2192  38.3349 0001364  67.7836 292.3301 15.08832344 19419,6917.904,95.438,540.712,538.825,0.0
